CAS500-2 RIDESHARE OBJE*
1 69011U 26100AH  26129.83337963 -.00048499  00000+0 -21191-2 0  9999
2 69011  97.7193  28.1829 0027744 185.3597  84.4190 15.21904101  2245
