{
  "norad_id": 69011,
  "name": "CAS500-2 RIDESHARE OBJECT AH",
  "history": [
    {
      "epoch": "2026-05-09T20:00:04.000032Z",
      "apogee_km": 519.1805524670117,
      "perigee_km": 481.01460443809447,
      "latitude_deg": -82.32200107581698,
      "longitude_deg": -50.18594973072284,
      "height_km": 526.6560955040757,
      "semi_major_axis_km": 6878.234578452552,
      "eccentricity": 0.0027744,
      "inclination_deg": 97.7193,
      "raan_deg": 28.1829,
      "arg_perigee_deg": 185.3597,
      "mean_anomaly_deg": 84.419,
      "mean_motion_rev_day": 15.21904101
    }
  ]
}